0 EDUSAT
1 37788U 11044A   13282.76519633  .00000491  00000-0  92354-4 0  7965
2 37788 098.2108 011.8293 0040165 033.4268 081.7588 14.68632758115081
0 EDUSAT
1 37788U 11044A   13284.11499916  .00000649  00000-0  11916-3 0  7977
2 37788 098.2110 013.1845 0040089 029.2431 018.1863 14.68634446115280
0 EDUSAT
1 37788U 11044A   13285.34550131  .00000520  00000-0  97221-4 0  7983
2 37788 098.2112 014.4198 0039998 025.4049 043.9020 14.68636042115462
0 EDUSAT
1 37788U 11044A   13286.50269858  .00000567  00000-0  10532-3 0  7996
2 37788 098.2112 015.5817 0039910 021.7522 042.1036 14.68637042115639
0 EDUSAT
1 37788U 11044A   13287.80665525  .00000758  00000-0  13769-3 0  8001
2 37788 098.2112 016.8910 0039835 017.5590 096.3143 14.68639791115825
0 EDUSAT
1 37788U 11044A   13288.82821959  .00000833  00000-0  15053-3 0  8012
2 37788 098.2111 017.9168 0039761 014.2791 097.4846 14.68641561115972
0 EDUSAT
1 37788U 11044A   13290.18040712  .00000763  00000-0  13856-3 0  8026
2 37788 098.2108 019.2745 0039670 009.9941 046.6610 14.68644721116170
0 EDUSAT
1 37788U 11044A   13291.27262216  .00000779  00000-0  14136-3 0  8032
2 37788 098.2107 020.3712 0039601 006.5133 061.3622 14.68646394116339
0 EDUSAT
1 37788U 11044A   13292.49811523  .00000824  00000-0  14894-3 0  8041
2 37788 098.2106 021.6019 0039497 002.6364 060.7062 14.68648109116515
0 EDUSAT
1 37788U 11044A   13293.80196906  .00000880  00000-0  15850-3 0  8054
2 37788 098.2105 022.9110 0039397 358.5158 114.3557 14.68650166116705
0 EDUSAT
1 37788U 11044A   13294.82245701  .00000903  00000-0  16232-3 0  8067
2 37788 098.2104 023.9355 0039323 355.2567 109.8536 14.68652530116852
0 EDUSAT
1 37788U 11044A   13295.84601091  .00000899  00000-0  16166-3 0  8079
2 37788 098.2104 024.9631 0039278 351.8731 121.6839 14.68653847117002
